{"type": "FeatureCollection", "features": [ {"type": "Feature", "properties": {"norad_id": 35442, "name": "COSMOS 2251 DEB", "group": "cosmos-2251-debris", "lat": -0.9378486947618662, "lon": 107.37519097587516, "alt_km": 619.9525622864821, "timestamp": "2025-12-08T10:52:03.344490+00:00", "meta": {"OBJECT_NAME": "COSMOS 2251 DEB", "OBJECT_ID": "1993-036AKL", "EPOCH": "2025-12-07T15:27:31.650048", "MEAN_MOTION": 14.84119587, "ECCENTRICITY": 0.00041145, "INCLINATION": 74.0265, "RA_OF_ASC_NODE": 109.2474, "ARG_OF_PERICENTER": 111.4342, "MEAN_ANOMALY": 248.7276, "EPHEMERIS_TYPE": 0, "CLASSIFICATION_TYPE": "U", "NORAD_CAT_ID": 35442, "ELEMENT_SET_NO": 999, "REV_AT_EPOCH": 87277, "BSTAR": 0.0046413266, "MEAN_MOTION_DOT": 0.00038955, "MEAN_MOTION_DDOT": 0}, "tle": {"line1": "1 35442U 93036AKL 25341.64411632  .00038955  00000+0  46413-2 0  9990", "line2": "2 35442  74.0265 109.2474 0004114 111.4342 248.7276 14.84119587872772"}}, "geometry": {"type": "Point", "coordinates": [107.37519097587516, -0.9378486947618662]}}, {"type": "Feature", "properties": {"norad_id": 35443, "name": "COSMOS 2251 DEB", "group": "cosmos-2251-debris", "lat": -25.404414173352375, "lon": 168.1243221298239, "alt_km": 577.2223155424472, "timestamp": "2025-12-08T10:52:03.344500+00:00", "meta": {"OBJECT_NAME": "COSMOS 2251 DEB", "OBJECT_ID": "1993-036AKM", "EPOCH": "2025-12-07T17:54:25.179264", "MEAN_MOTION": 14.96112551, "ECCENTRICITY": 0.00732733, "INCLINATION": 73.9873, "RA_OF_ASC_NODE": 341.7167, "ARG_OF_PERICENTER": 125.1508, "MEAN_ANOMALY": 235.6572, "EPHEMERIS_TYPE": 0, "CLASSIFICATION_TYPE": "U", "NORAD_CAT_ID": 35443, "ELEMENT_SET_NO": 999, "REV_AT_EPOCH": 86803, "BSTAR": 0.0058357611, "MEAN_MOTION_DOT": 0.00069938, "MEAN_MOTION_DDOT": 0}, "tle": {"line1": "1 35443U 93036AKM 25341.74612476  .00069938  00000+0  58358-2 0  9997", "line2": "2 35443  73.9873 341.7167 0073273 125.1508 235.6572 14.96112551868031"}}, "geometry": {"type": "Point", "coordinates": [168.1243221298239, -25.404414173352375]}}, {"type": "Feature", "properties": {"norad_id": 35445, "name": "COSMOS 2251 DEB", "group": "cosmos-2251-debris", "lat": 72.68633637136044, "lon": 61.51296812538512, "alt_km": 638.0225551162393, "timestamp": "2025-12-08T10:52:03.344510+00:00", "meta": {"OBJECT_NAME": "COSMOS 2251 DEB", "OBJECT_ID": "1993-036AKP", "EPOCH": "2025-12-06T22:13:57.265536", "MEAN_MOTION": 14.58958102, "ECCENTRICITY": 0.01436286, "INCLINATION": 74.0374, "RA_OF_ASC_NODE": 311.0852, "ARG_OF_PERICENTER": 39.494, "MEAN_ANOMALY": 321.6585, "EPHEMERIS_TYPE": 0, "CLASSIFICATION_TYPE": "U", "NORAD_CAT_ID": 35445, "ELEMENT_SET_NO": 999, "REV_AT_EPOCH": 87244, "BSTAR": 0.0028679894, "MEAN_MOTION_DOT": 0.00015537, "MEAN_MOTION_DDOT": 0}, "tle": {"line1": "1 35445U 93036AKP 25340.92635724  .00015537  00000+0  28680-2 0  9990", "line2": "2 35445  74.0374 311.0852 0143628  39.4940 321.6585 14.58958102872449"}}, "geometry": {"type": "Point", "coordinates": [61.51296812538512, 72.68633637136044]}}, {"type": "Feature", "properties": {"norad_id": 35446, "name": "COSMOS 2251 DEB", "group": "cosmos-2251-debris", "lat": -20.21763428432011, "lon": 152.33680058967468, "alt_km": 737.5039843660043, "timestamp": "2025-12-08T10:52:03.344521+00:00", "meta": {"OBJECT_NAME": "COSMOS 2251 DEB", "OBJECT_ID": "1993-036AKQ", "EPOCH": "2025-12-05T17:34:52.262112", "MEAN_MOTION": 14.54618421, "ECCENTRICITY": 0.00744002, "INCLINATION": 74.0466, "RA_OF_ASC_NODE": 331.4309, "ARG_OF_PERICENTER": 91.6694, "MEAN_ANOMALY": 269.2992, "EPHEMERIS_TYPE": 0, "CLASSIFICATION_TYPE": "U", "NORAD_CAT_ID": 35446, "ELEMENT_SET_NO": 999, "REV_AT_EPOCH": 87906, "BSTAR": 0.00018901942, "MEAN_MOTION_DOT": 8.08e-06, "MEAN_MOTION_DDOT": 0}, "tle": {"line1": "1 35446U 93036AKQ 25339.73254933  .00000808  00000+0  18902-3 0  9999", "line2": "2 35446  74.0466 331.4309 0074400  91.6694 269.2992 14.54618421879069"}}, "geometry": {"type": "Point", "coordinates": [152.33680058967468, -20.21763428432011]}}, {"type": "Feature", "properties": {"norad_id": 35448, "name": "COSMOS 2251 DEB", "group": "cosmos-2251-debris", "lat": 60.52484298961516, "lon": 128.40402699775467, "alt_km": 712.4742935757631, "timestamp": "2025-12-08T10:52:03.344531+00:00", "meta": {"OBJECT_NAME": "COSMOS 2251 DEB", "OBJECT_ID": "1993-036AKS", "EPOCH": "2025-12-07T14:45:24.921792", "MEAN_MOTION": 14.54192241, "ECCENTRICITY": 0.00114068, "INCLINATION": 73.9036, "RA_OF_ASC_NODE": 99.277, "ARG_OF_PERICENTER": 279.9648, "MEAN_ANOMALY": 80.0226, "EPHEMERIS_TYPE": 0, "CLASSIFICATION_TYPE": "U", "NORAD_CAT_ID": 35448, "ELEMENT_SET_NO": 999, "REV_AT_EPOCH": 87260, "BSTAR": 0.0019807158, "MEAN_MOTION_DOT": 8.373e-05, "MEAN_MOTION_DDOT": 0}, "tle": {"line1": "1 35448U 93036AKS 25341.61487178  .00008373  00000+0  19807-2 0  9999", "line2": "2 35448  73.9036  99.2770 0011406 279.9648  80.0226 14.54192241872609"}}, "geometry": {"type": "Point", "coordinates": [128.40402699775467, 60.52484298961516]}}, {"type": "Feature", "properties": {"norad_id": 35451, "name": "COSMOS 2251 DEB", "group": "cosmos-2251-debris", "lat": -72.50587654317279, "lon": 45.79070855067208, "alt_km": 463.85794438299126, "timestamp": "2025-12-08T10:52:03.344541+00:00", "meta": {"OBJECT_NAME": "COSMOS 2251 DEB", "OBJECT_ID": "1993-036AKV", "EPOCH": "2025-12-07T08:37:59.975616", "MEAN_MOTION": 15.34796535, "ECCENTRICITY": 0.00403951, "INCLINATION": 73.9319, "RA_OF_ASC_NODE": 114.2824, "ARG_OF_PERICENTER": 1.3227, "MEAN_ANOMALY": 358.8076, "EPHEMERIS_TYPE": 0, "CLASSIFICATION_TYPE": "U", "NORAD_CAT_ID": 35451, "ELEMENT_SET_NO": 999, "REV_AT_EPOCH": 67323, "BSTAR": 0.0021590375, "MEAN_MOTION_DOT": 0.00075507, "MEAN_MOTION_DDOT": 0}, "tle": {"line1": "1 35451U 93036AKV 25341.35972194  .00075507  00000+0  21590-2 0  9996", "line2": "2 35451  73.9319 114.2824 0040395   1.3227 358.8076 15.34796535673236"}}, "geometry": {"type": "Point", "coordinates": [45.79070855067208, -72.50587654317279]}}, {"type": "Feature", "properties": {"norad_id": 35453, "name": "COSMOS 2251 DEB", "group": "cosmos-2251-debris", "lat": 8.01103214216117, "lon": 30.600289832742842, "alt_km": 810.7354777507508, "timestamp": "2025-12-08T10:52:03.344552+00:00", "meta": {"OBJECT_NAME": "COSMOS 2251 DEB", "OBJECT_ID": "1993-036AKX", "EPOCH": "2025-12-02T12:53:58.122528", "MEAN_MOTION": 14.3790654, "ECCENTRICITY": 0.00680216, "INCLINATION": 74.0102, "RA_OF_ASC_NODE": 39.1945, "ARG_OF_PERICENTER": 175.6131, "MEAN_ANOMALY": 184.5634, "EPHEMERIS_TYPE": 0, "CLASSIFICATION_TYPE": "U", "NORAD_CAT_ID": 35453, "ELEMENT_SET_NO": 999, "REV_AT_EPOCH": 86072, "BSTAR": 0.00098540606, "MEAN_MOTION_DOT": 3.03e-05, "MEAN_MOTION_DDOT": 0}, "tle": {"line1": "1 35453U 93036AKX 25336.53747827  .00003030  00000+0  98541-3 0  9998", "line2": "2 35453  74.0102  39.1945 0068021 175.6131 184.5634 14.37906540860721"}}, "geometry": {"type": "Point", "coordinates": [30.600289832742842, 8.01103214216117]}}, {"type": "Feature", "properties": {"norad_id": 35455, "name": "COSMOS 2251 DEB", "group": "cosmos-2251-debris", "lat": 43.819423557981104, "lon": -41.19721932948021, "alt_km": 653.6229698385932, "timestamp": "2025-12-08T10:52:03.344562+00:00", "meta": {"OBJECT_NAME": "COSMOS 2251 DEB", "OBJECT_ID": "1993-036AKZ", "EPOCH": "2025-12-07T08:09:12.761856", "MEAN_MOTION": 14.49303743, "ECCENTRICITY": 0.00988065, "INCLINATION": 74.0288, "RA_OF_ASC_NODE": 304.9396, "ARG_OF_PERICENTER": 49.7961, "MEAN_ANOMALY": 311.1793, "EPHEMERIS_TYPE": 0, "CLASSIFICATION_TYPE": "U", "NORAD_CAT_ID": 35455, "ELEMENT_SET_NO": 999, "REV_AT_EPOCH": 86465, "BSTAR": 0.0024932922, "MEAN_MOTION_DOT": 0.00010113, "MEAN_MOTION_DDOT": 0}, "tle": {"line1": "1 35455U 93036AKZ 25341.33973104  .00010113  00000+0  24933-2 0  9996", "line2": "2 35455  74.0288 304.9396 0098806  49.7961 311.1793 14.49303743864656"}}, "geometry": {"type": "Point", "coordinates": [-41.19721932948021, 43.819423557981104]}}, {"type": "Feature", "properties": {"norad_id": 35456, "name": "COSMOS 2251 DEB", "group": "cosmos-2251-debris", "lat": 71.43859403913277, "lon": -113.19510452212867, "alt_km": 680.7926171564486, "timestamp": "2025-12-08T10:52:03.344572+00:00", "meta": {"OBJECT_NAME": "COSMOS 2251 DEB", "OBJECT_ID": "1993-036ALA", "EPOCH": "2025-12-07T16:26:35.520576", "MEAN_MOTION": 14.69275987, "ECCENTRICITY": 0.0065481, "INCLINATION": 73.9502, "RA_OF_ASC_NODE": 127.3161, "ARG_OF_PERICENTER": 338.308, "MEAN_ANOMALY": 21.5318, "EPHEMERIS_TYPE": 0, "CLASSIFICATION_TYPE": "U", "NORAD_CAT_ID": 35456, "ELEMENT_SET_NO": 999, "REV_AT_EPOCH": 65801, "BSTAR": 0.0028319025, "MEAN_MOTION_DOT": 0.00017275, "MEAN_MOTION_DDOT": 0}, "tle": {"line1": "1 35456U 93036ALA 25341.68513334  .00017275  00000+0  28319-2 0  9998", "line2": "2 35456  73.9502 127.3161 0065481 338.3080  21.5318 14.69275987658019"}}, "geometry": {"type": "Point", "coordinates": [-113.19510452212867, 71.43859403913277]}}, {"type": "Feature", "properties": {"norad_id": 35459, "name": "COSMOS 2251 DEB", "group": "cosmos-2251-debris", "lat": -66.6279009369947, "lon": 57.29095268250154, "alt_km": 777.4227449158552, "timestamp": "2025-12-08T10:52:03.344582+00:00", "meta": {"OBJECT_NAME": "COSMOS 2251 DEB", "OBJECT_ID": "1993-036ALD", "EPOCH": "2025-12-05T21:33:57.544416", "MEAN_MOTION": 14.37446258, "ECCENTRICITY": 0.00165225, "INCLINATION": 73.8704, "RA_OF_ASC_NODE": 199.9991, "ARG_OF_PERICENTER": 150.1634, "MEAN_ANOMALY": 210.0464, "EPHEMERIS_TYPE": 0, "CLASSIFICATION_TYPE": "U", "NORAD_CAT_ID": 35459, "ELEMENT_SET_NO": 999, "REV_AT_EPOCH": 58263, "BSTAR": 0.00040904083, "MEAN_MOTION_DOT": 1.198e-05, "MEAN_MOTION_DDOT": 0}, "tle": {"line1": "1 35459U 93036ALD 25339.89858269  .00001198  00000+0  40904-3 0  9992", "line2": "2 35459  73.8704 199.9991 0016522 150.1634 210.0464 14.37446258582635"}}, "geometry": {"type": "Point", "coordinates": [57.29095268250154, -66.6279009369947]}}]}